[
    {
        "Altitude(m)": 559829.8880902083,
        "Argument of Periapsis(deg)": 0.019868973332140504,
        "Eccentricity": 0.0,
        "Inclination(deg)": 53.0,
        "Latitude(deg)": 52.84383098528524,
        "Longitude(deg)": 74.07673279249957,
        "Mean Anomaly(deg)": 84.82027860273278,
        "RAAN(deg)": 94.97043010558406,
        "Satellite Name": "Starlink Shell 1 421",
        "Satellite Number": 421,
        "Semi-Major Axis(m)": 6931778.249405717,
        "Time(s)": 570
    },
    {
        "Altitude(m)": 559845.8562195926,
        "Argument of Periapsis(deg)": 0.02021755181165174,
        "Eccentricity": 0.0,
        "Inclination(deg)": 53.0,
        "Latitude(deg)": 52.91375922793325,
        "Longitude(deg)": 75.06477613763074,
        "Mean Anomaly(deg)": 85.44710980628946,
        "RAAN(deg)": 94.96991133550658,
        "Satellite Name": "Starlink Shell 1 421",
        "Satellite Number": 421,
        "Semi-Major Axis(m)": 6931778.249405717,
        "Time(s)": 580
    },
    {
        "Altitude(m)": 559859.7877056848,
        "Argument of Periapsis(deg)": 0.020566130291162974,
        "Eccentricity": 0.0,
        "Inclination(deg)": 53.0,
        "Latitude(deg)": 52.97474610995048,
        "Longitude(deg)": 76.05592556216324,
        "Mean Anomaly(deg)": 86.0739410098462,
        "RAAN(deg)": 94.9693925654291,
        "Satellite Name": "Starlink Shell 1 421",
        "Satellite Number": 421,
        "Semi-Major Axis(m)": 6931778.249405717,
        "Time(s)": 590
    },
    {
        "Altitude(m)": 559871.674222654,
        "Argument of Periapsis(deg)": 0.020914708770674213,
        "Eccentricity": 0.0,
        "Inclination(deg)": 53.0,
        "Latitude(deg)": 53.02674695518139,
        "Longitude(deg)": 77.04976909367181,
        "Mean Anomaly(deg)": 86.7007722134029,
        "RAAN(deg)": 94.96887379535163,
        "Satellite Name": "Starlink Shell 1 421",
        "Satellite Number": 421,
        "Semi-Major Axis(m)": 6931778.249405717,
        "Time(s)": 600
    },
    {
        "Altitude(m)": 559881.5086738399,
        "Argument of Periapsis(deg)": 0.021263287250185448,
        "Eccentricity": 0.0,
        "Inclination(deg)": 53.0,
        "Latitude(deg)": 53.06972343889276,
        "Longitude(deg)": 78.04588686490835,
        "Mean Anomaly(deg)": 87.32760341695962,
        "RAAN(deg)": 94.96835502527418,
        "Satellite Name": "Starlink Shell 1 421",
        "Satellite Number": 421,
        "Semi-Major Axis(m)": 6931778.249405717,
        "Time(s)": 610
    },
    {
        "Altitude(m)": 559889.2851952305,
        "Argument of Periapsis(deg)": 0.021611865729696686,
        "Eccentricity": 0.0,
        "Inclination(deg)": 53.0,
        "Latitude(deg)": 53.10364372552347,
        "Longitude(deg)": 79.04385279185253,
        "Mean Anomaly(deg)": 87.95443462051634,
        "RAAN(deg)": 94.9678362551967,
        "Satellite Name": "Starlink Shell 1 421",
        "Satellite Number": 421,
        "Semi-Major Axis(m)": 6931778.249405717,
        "Time(s)": 620
    },
    {
        "Altitude(m)": 559894.9991582937,
        "Argument of Periapsis(deg)": 0.02196044420920792,
        "Eccentricity": 0.0,
        "Inclination(deg)": 53.0,
        "Latitude(deg)": 53.12848258410516,
        "Longitude(deg)": 80.04323461917099,
        "Mean Anomaly(deg)": 88.58126582407304,
        "RAAN(deg)": 94.96731748511922,
        "Satellite Name": "Starlink Shell 1 421",
        "Satellite Number": 421,
        "Semi-Major Axis(m)": 6931778.249405717,
        "Time(s)": 630
    },
    {
        "Altitude(m)": 559898.6471722298,
        "Argument of Periapsis(deg)": 0.02230902268871916,
        "Eccentricity": 0.0,
        "Inclination(deg)": 53.0,
        "Latitude(deg)": 53.144221480382384,
        "Longitude(deg)": 81.04359652712996,
        "Mean Anomaly(deg)": 89.20809702762976,
        "RAAN(deg)": 94.96679871504175,
        "Satellite Name": "Starlink Shell 1 421",
        "Satellite Number": 421,
        "Semi-Major Axis(m)": 6931778.249405717,
        "Time(s)": 640
    },
    {
        "Altitude(m)": 559900.2270856381,
        "Argument of Periapsis(deg)": 0.022657601168230398,
        "Eccentricity": 0.0,
        "Inclination(deg)": 53.0,
        "Latitude(deg)": 53.15084864484441,
        "Longitude(deg)": 82.04449924810609,
        "Mean Anomaly(deg)": 89.83492823118648,
        "RAAN(deg)": 94.96627994496427,
        "Satellite Name": "Starlink Shell 1 421",
        "Satellite Number": 421,
        "Semi-Major Axis(m)": 6931778.249405717,
        "Time(s)": 650
    },
    {
        "Altitude(m)": 559899.7379875353,
        "Argument of Periapsis(deg)": 0.023006179647741636,
        "Eccentricity": 0.0,
        "Inclination(deg)": 53.0,
        "Latitude(deg)": 53.148359116087185,
        "Longitude(deg)": 83.04550188578027,
        "Mean Anomaly(deg)": 90.46175943474321,
        "RAAN(deg)": 94.9657611748868,
        "Satellite Name": "Starlink Shell 1 421",
        "Satellite Number": 421,
        "Semi-Major Axis(m)": 6931778.249405717,
        "Time(s)": 660
    },
    {
        "Altitude(m)": 559897.1802078077,
        "Argument of Periapsis(deg)": 0.023354758127252868,
        "Eccentricity": 0.0,
        "Inclination(deg)": 53.0,
        "Latitude(deg)": 53.136754759129886,
        "Longitude(deg)": 84.04616374638438,
        "Mean Anomaly(deg)": 91.08859063829992,
        "RAAN(deg)": 94.96524240480935,
        "Satellite Name": "Starlink Shell 1 421",
        "Satellite Number": 421,
        "Semi-Major Axis(m)": 6931778.249405717,
        "Time(s)": 670
    },
    {
        "Altitude(m)": 559892.5553170507,
        "Argument of Periapsis(deg)": 0.023703336606764106,
        "Eccentricity": 0.0,
        "Inclination(deg)": 53.0,
        "Latitude(deg)": 53.116044258527616,
        "Longitude(deg)": 85.04604465931047,
        "Mean Anomaly(deg)": 91.71542184185662,
        "RAAN(deg)": 94.96472363473187,
        "Satellite Name": "Starlink Shell 1 421",
        "Satellite Number": 421,
        "Semi-Major Axis(m)": 6931778.249405717,
        "Time(s)": 680
    },
    {
        "Altitude(m)": 559885.8661257944,
        "Argument of Periapsis(deg)": 0.024051915086275345,
        "Eccentricity": 0.0,
        "Inclination(deg)": 53.0,
        "Latitude(deg)": 53.08624308634061,
        "Longitude(deg)": 86.04470680298262,
        "Mean Anomaly(deg)": 92.34225304541334,
        "RAAN(deg)": 94.96420486465439,
        "Satellite Name": "Starlink Shell 1 421",
        "Satellite Number": 421,
        "Semi-Major Axis(m)": 6931778.249405717,
        "Time(s)": 690
    },
    {
        "Altitude(m)": 559877.1166831313,
        "Argument of Periapsis(deg)": 0.024400493565786583,
        "Eccentricity": 0.0,
        "Inclination(deg)": 53.0,
        "Latitude(deg)": 53.047373445236246,
        "Longitude(deg)": 87.04171651337346,
        "Mean Anomaly(deg)": 92.96908424897005,
        "RAAN(deg)": 94.96368609457691,
        "Satellite Name": "Starlink Shell 1 421",
        "Satellite Number": 421,
        "Semi-Major Axis(m)": 6931778.249405717,
        "Time(s)": 700
    },
    {
        "Altitude(m)": 559866.3122747458,
        "Argument of Periapsis(deg)": 0.024749072045297815,
        "Eccentricity": 0.0,
        "Inclination(deg)": 53.0,
        "Latitude(deg)": 52.999464187213306,
        "Longitude(deg)": 88.03664455278204,
        "Mean Anomaly(deg)": 93.59591545252677,
        "RAAN(deg)": 94.96316732449944,
        "Satellite Name": "Starlink Shell 1 421",
        "Satellite Number": 421,
        "Semi-Major Axis(m)": 6931778.249405717,
        "Time(s)": 710
    },
    {
        "Altitude(m)": 559853.4594203297,
        "Argument of Periapsis(deg)": 0.025097650524809053,
        "Eccentricity": 0.0,
        "Inclination(deg)": 53.0,
        "Latitude(deg)": 52.94255070864425,
        "Longitude(deg)": 89.02906785548988,
        "Mean Anomaly(deg)": 94.22274665608349,
        "RAAN(deg)": 94.96264855442196,
        "Satellite Name": "Starlink Shell 1 421",
        "Satellite Number": 421,
        "Semi-Major Axis(m)": 6931778.249405717,
        "Time(s)": 720
    },
    {
        "Altitude(m)": 559838.5658704143,
        "Argument of Periapsis(deg)": 0.02544622900432029,
        "Eccentricity": 0.0,
        "Inclination(deg)": 53.0,
        "Latitude(deg)": 52.87667482252504,
        "Longitude(deg)": 90.01857122876814,
        "Mean Anomaly(deg)": 94.8495778596402,
        "RAAN(deg)": 94.9621297843445,
        "Satellite Name": "Starlink Shell 1 421",
        "Satellite Number": 421,
        "Semi-Major Axis(m)": 6931778.249405717,
        "Time(s)": 730
    },
    {
        "Altitude(m)": 559821.6406025769,
        "Argument of Periapsis(deg)": 0.02579480748383153,
        "Eccentricity": 0.0,
        "Inclination(deg)": 53.0,
        "Latitude(deg)": 52.801884609002684,
        "Longitude(deg)": 91.0047474883077,
        "Mean Anomaly(deg)": 95.47640906319694,
        "RAAN(deg)": 94.96161101426704,
        "Satellite Name": "Starlink Shell 1 421",
        "Satellite Number": 421,
        "Semi-Major Axis(m)": 6931778.249405717,
        "Time(s)": 740
    },
    {
        "Altitude(m)": 559802.6938170765,
        "Argument of Periapsis(deg)": 0.026143385963342765,
        "Eccentricity": 0.0,
        "Inclination(deg)": 53.0,
        "Latitude(deg)": 52.71823424541824,
        "Longitude(deg)": 91.98719904646826,
        "Mean Anomaly(deg)": 96.10324026675363,
        "RAAN(deg)": 94.96109224418953,
        "Satellite Name": "Starlink Shell 1 421",
        "Satellite Number": 421,
        "Semi-Major Axis(m)": 6931778.249405717,
        "Time(s)": 750
    }
]